start=new Date('2023-02-14T00:00:00.000Z').valueOf();
sats=[{"COUNTRY_CODE":"US","TIME_SYSTEM":"UTC","PERIAPSIS":"546.213","MEAN_ELEMENT_THEORY":"SGP4","CLASSIFICATION_TYPE":"U","DECAY_DATE":null,"MEAN_MOTION_DOT":"0.00003733","ELEMENT_SET_NO":"999","OBJECT_NAME":"STARLINK-1145","PERIOD":"95.592","ARG_OF_PERICENTER":"88.8962","TLE_LINE2":"2 45066  53.0530 254.8651 0001465  88.8962 271.2195 15.06395396167915","BSTAR":"0.00026942000000","ECCENTRICITY":"0.00014650","RA_OF_ASC_NODE":"254.8651","SITE":"AFETR","FILE":"3789366","OBJECT_TYPE":"PAYLOAD","LAUNCH_DATE":"2020-01-29","RCS_SIZE":"LARGE","MEAN_MOTION":"15.06395396","MEAN_MOTION_DDOT":"0.0000000000000","INCLINATION":"53.0530","OBJECT_ID":"2020-006Y","REV_AT_EPOCH":"16791","APOAPSIS":"548.242","EPOCH":"2023-02-13T14:34:03.601632","REF_FRAME":"TEME","NORAD_CAT_ID":"45066","GP_ID":"225321653","TLE_LINE1":"1 45066U 20006Y   23044.60698613  .00003733  00000-0  26942-3 0  9993","SEMIMAJOR_AXIS":"6925.363","CENTER_NAME":"EARTH","EPHEMERIS_TYPE":"0","MEAN_ANOMALY":"271.2195"},{"DECAY_DATE":null,"COUNTRY_CODE":"US","TIME_SYSTEM":"UTC","MEAN_ELEMENT_THEORY":"SGP4","PERIAPSIS":"546.514","CLASSIFICATION_TYPE":"U","PERIOD":"95.592","ARG_OF_PERICENTER":"91.2123","TLE_LINE2":"2 45067  53.0518 254.8007 0001018  91.2123 268.8983 15.06398070167928","ELEMENT_SET_NO":"999","MEAN_MOTION_DOT":"0.00003161","OBJECT_NAME":"STARLINK-1150","RA_OF_ASC_NODE":"254.8007","BSTAR":"0.00023103000000","ECCENTRICITY":"0.00010180","LAUNCH_DATE":"2020-01-29","OBJECT_TYPE":"PAYLOAD","MEAN_MOTION_DDOT":"0.0000000000000","RCS_SIZE":"LARGE","MEAN_MOTION":"15.06398070","FILE":"3789366","SITE":"AFETR","INCLINATION":"53.0518","OBJECT_ID":"2020-006Z","REF_FRAME":"TEME","NORAD_CAT_ID":"45067","APOAPSIS":"547.924","REV_AT_EPOCH":"16792","EPOCH":"2023-02-13T14:55:17.267232","EPHEMERIS_TYPE":"0","MEAN_ANOMALY":"268.8983","GP_ID":"225322379","TLE_LINE1":"1 45067U 20006Z   23044.62172763  .00003161  00000-0  23103-3 0  9990","CENTER_NAME":"EARTH","SEMIMAJOR_AXIS":"6925.354"},{"FILE":"3789366","SITE":"AFETR","OBJECT_TYPE":"PAYLOAD","LAUNCH_DATE":"2020-01-29","MEAN_MOTION_DDOT":"0.0000000000000","RCS_SIZE":"LARGE","MEAN_MOTION":"15.06388416","BSTAR":"-0.00022105000000","ECCENTRICITY":"0.00013570","RA_OF_ASC_NODE":"254.7874","MEAN_MOTION_DOT":"-0.00003571","ELEMENT_SET_NO":"999","OBJECT_NAME":"STARLINK-1161","ARG_OF_PERICENTER":"81.1444","PERIOD":"95.593","TLE_LINE2":"2 45068  53.0517 254.7874 0001357  81.1444 278.9698 15.06388416168254","TIME_SYSTEM":"UTC","COUNTRY_CODE":"US","CLASSIFICATION_TYPE":"U","PERIAPSIS":"546.309","MEAN_ELEMENT_THEORY":"SGP4","DECAY_DATE":null,"TLE_LINE1":"1 45068U 20006AA  23044.59497764 -.00003571  00000-0 -22105-3 0  9996","GP_ID":"225320652","CENTER_NAME":"EARTH","SEMIMAJOR_AXIS":"6925.384","EPHEMERIS_TYPE":"0","MEAN_ANOMALY":"278.9698","APOAPSIS":"548.189","REV_AT_EPOCH":"16825","EPOCH":"2023-02-13T14:16:46.068096","REF_FRAME":"TEME","NORAD_CAT_ID":"45068","INCLINATION":"53.0517","OBJECT_ID":"2020-006AA"},{"BSTAR":"0.00033232000000","ECCENTRICITY":"0.00012010","RA_OF_ASC_NODE":"256.1349","SITE":"AFETR","FILE":"3789366","LAUNCH_DATE":"2020-01-29","OBJECT_TYPE":"PAYLOAD","MEAN_MOTION":"15.06401696","RCS_SIZE":"LARGE","MEAN_MOTION_DDOT":"0.0000000000000","TIME_SYSTEM":"UTC","COUNTRY_CODE":"US","CLASSIFICATION_TYPE":"U","MEAN_ELEMENT_THEORY":"SGP4","PERIAPSIS":"546.377","DECAY_DATE":null,"MEAN_MOTION_DOT":"0.00004672","ELEMENT_SET_NO":"999","OBJECT_NAME":"STARLINK-1167","ARG_OF_PERICENTER":"78.6142","PERIOD":"95.592","TLE_LINE2":"2 45071  53.0519 256.1349 0001201  78.6142 281.4981 15.06401696167874","TLE_LINE1":"1 45071U 20006AD  23044.32316748  .00004672  00000-0  33232-3 0  9997","GP_ID":"225320902","CENTER_NAME":"EARTH","SEMIMAJOR_AXIS":"6925.343","EPHEMERIS_TYPE":"0","MEAN_ANOMALY":"281.4981","OBJECT_ID":"2020-006AD","INCLINATION":"53.0519","REV_AT_EPOCH":"16787","APOAPSIS":"548.040","EPOCH":"2023-02-13T07:45:21.670272","REF_FRAME":"TEME","NORAD_CAT_ID":"45071"},{"DECAY_DATE":null,"COUNTRY_CODE":"US","TIME_SYSTEM":"UTC","PERIAPSIS":"546.373","MEAN_ELEMENT_THEORY":"SGP4","CLASSIFICATION_TYPE":"U","PERIOD":"95.592","ARG_OF_PERICENTER":"87.8414","TLE_LINE2":"2 45072  53.0512 257.6143 0001213  87.8414 272.2714 15.06400305167826","MEAN_MOTION_DOT":"0.00004100","ELEMENT_SET_NO":"999","OBJECT_NAME":"STARLINK-1168","RA_OF_ASC_NODE":"257.6143","BSTAR":"0.00029398000000","ECCENTRICITY":"0.00012130","OBJECT_TYPE":"PAYLOAD","LAUNCH_DATE":"2020-01-29","RCS_SIZE":"LARGE","MEAN_MOTION_DDOT":"0.0000000000000","MEAN_MOTION":"15.06400305","FILE":"3789366","SITE":"AFETR","OBJECT_ID":"2020-006AE","INCLINATION":"53.0512","REF_FRAME":"TEME","NORAD_CAT_ID":"45072","REV_AT_EPOCH":"16782","APOAPSIS":"548.053","EPOCH":"2023-02-12T23:52:58.027584","EPHEMERIS_TYPE":"0","MEAN_ANOMALY":"272.2714","GP_ID":"225322151","TLE_LINE1":"1 45072U 20006AE  23043.99511606  .00004100  00000-0  29398-3 0  9994","SEMIMAJOR_AXIS":"6925.348","CENTER_NAME":"EARTH"},{"INCLINATION":"53.0527","OBJECT_ID":"2020-006AF","EPOCH":"2023-02-13T08:27:49.576032","REV_AT_EPOCH":"16787","APOAPSIS":"548.136","NORAD_CAT_ID":"45073","REF_FRAME":"TEME","CENTER_NAME":"EARTH","SEMIMAJOR_AXIS":"6925.402","GP_ID":"225321880","TLE_LINE1":"1 45073U 20006AF  23044.35265713  .00004809  00000-0  34166-3 0  9996","MEAN_ANOMALY":"228.9640","EPHEMERIS_TYPE":"0","PERIAPSIS":"546.397","MEAN_ELEMENT_THEORY":"SGP4","CLASSIFICATION_TYPE":"U","TIME_SYSTEM":"UTC","COUNTRY_CODE":"US","DECAY_DATE":null,"OBJECT_NAME":"STARLINK-1170","ELEMENT_SET_NO":"999","MEAN_MOTION_DOT":"0.00004809","TLE_LINE2":"2 45073  53.0527 256.0086 0001256 131.1457 228.9640 15.06382686167871","PERIOD":"95.593","ARG_OF_PERICENTER":"131.1457","ECCENTRICITY":"0.00012560","BSTAR":"0.00034166000000","RA_OF_ASC_NODE":"256.0086","FILE":"3789366","SITE":"AFETR","MEAN_MOTION":"15.06382686","RCS_SIZE":"LARGE","MEAN_MOTION_DDOT":"0.0000000000000","LAUNCH_DATE":"2020-01-29","OBJECT_TYPE":"PAYLOAD"},{"REF_FRAME":"TEME","NORAD_CAT_ID":"45074","APOAPSIS":"548.162","REV_AT_EPOCH":"16825","EPOCH":"2023-02-13T14:28:44.978304","OBJECT_ID":"2020-006AG","INCLINATION":"53.0518","EPHEMERIS_TYPE":"0","MEAN_ANOMALY":"273.5431","GP_ID":"225321152","TLE_LINE1":"1 45074U 20006AG  23044.60329836  .00014255  00000-0  97384-3 0  9999","SEMIMAJOR_AXIS":"6925.335","CENTER_NAME":"EARTH","PERIOD":"95.592","ARG_OF_PERICENTER":"86.5716","TLE_LINE2":"2 45074  53.0518 254.8842 0001390  86.5716 273.5431 15.06404492168255","MEAN_MOTION_DOT":"0.00014255","ELEMENT_SET_NO":"999","OBJECT_NAME":"STARLINK-1172","DECAY_DATE":null,"TIME_SYSTEM":"UTC","COUNTRY_CODE":"US","MEAN_ELEMENT_THEORY":"SGP4","PERIAPSIS":"546.237","CLASSIFICATION_TYPE":"U","OBJECT_TYPE":"PAYLOAD","LAUNCH_DATE":"2020-01-29","RCS_SIZE":"LARGE","MEAN_MOTION":"15.06404492","MEAN_MOTION_DDOT":"0.0000000000000","SITE":"AFETR","FILE":"3789366","RA_OF_ASC_NODE":"254.8842","BSTAR":"0.00097384000000","ECCENTRICITY":"0.00013900"},{"BSTAR":"0.00003299100000","ECCENTRICITY":"0.00009600","RA_OF_ASC_NODE":"256.2255","FILE":"3789366","SITE":"AFETR","OBJECT_TYPE":"PAYLOAD","LAUNCH_DATE":"2020-01-29","MEAN_MOTION_DDOT":"0.0000000000000","RCS_SIZE":"LARGE","MEAN_MOTION":"15.06392112","TIME_SYSTEM":"UTC","COUNTRY_CODE":"US","CLASSIFICATION_TYPE":"U","MEAN_ELEMENT_THEORY":"SGP4","PERIAPSIS":"546.573","DECAY_DATE":null,"MEAN_MOTION_DOT":"0.00000210","ELEMENT_SET_NO":"999","OBJECT_NAME":"STARLINK-1174","ARG_OF_PERICENTER":"83.1291","PERIOD":"95.593","TLE_LINE2":"2 45075  53.0507 256.2255 0000960  83.1291 276.9807 15.06392112167877","TLE_LINE1":"1 45075U 20006AH  23044.30473708  .00000210  00000-0  32991-4 0  9995","GP_ID":"225321402","SEMIMAJOR_AXIS":"6925.373","CENTER_NAME":"EARTH","EPHEMERIS_TYPE":"0","MEAN_ANOMALY":"276.9807","INCLINATION":"53.0507","OBJECT_ID":"2020-006AH","REV_AT_EPOCH":"16787","APOAPSIS":"547.903","EPOCH":"2023-02-13T07:18:49.283712","REF_FRAME":"TEME","NORAD_CAT_ID":"45075"},{"CLASSIFICATION_TYPE":"U","PERIAPSIS":"546.470","MEAN_ELEMENT_THEORY":"SGP4","COUNTRY_CODE":"US","TIME_SYSTEM":"UTC","DECAY_DATE":null,"OBJECT_NAME":"STARLINK-1180","MEAN_MOTION_DOT":"0.00000352","ELEMENT_SET_NO":"999","TLE_LINE2":"2 45076  53.0499 254.9927 0001096  84.3049 275.8065 15.06394944167918","ARG_OF_PERICENTER":"84.3049","PERIOD":"95.592","ECCENTRICITY":"0.00010960","BSTAR":"0.00004252900000","RA_OF_ASC_NODE":"254.9927","SITE":"AFETR","FILE":"3789366","MEAN_MOTION":"15.06394944","RCS_SIZE":"LARGE","MEAN_MOTION_DDOT":"0.0000000000000","LAUNCH_DATE":"2020-01-29","OBJECT_TYPE":"PAYLOAD","INCLINATION":"53.0499","OBJECT_ID":"2020-006AJ","EPOCH":"2023-02-13T13:50:14.039232","APOAPSIS":"547.988","REV_AT_EPOCH":"16791","NORAD_CAT_ID":"45076","REF_FRAME":"TEME","SEMIMAJOR_AXIS":"6925.364","CENTER_NAME":"EARTH","TLE_LINE1":"1 45076U 20006AJ  23044.57655138  .00000352  00000-0  42529-4 0  9999","GP_ID":"225321654","MEAN_ANOMALY":"275.8065","EPHEMERIS_TYPE":"0"},{"NORAD_CAT_ID":"45078","REF_FRAME":"TEME","EPOCH":"2023-02-12T23:58:16.534272","APOAPSIS":"548.023","REV_AT_EPOCH":"16781","OBJECT_ID":"2020-006AL","INCLINATION":"53.0515","MEAN_ANOMALY":"263.2970","EPHEMERIS_TYPE":"0","CENTER_NAME":"EARTH","SEMIMAJOR_AXIS":"6925.353","GP_ID":"225322380","TLE_LINE1":"1 45078U 20006AL  23043.99880248  .00002965  00000-0  21785-3 0  9990","TLE_LINE2":"2 45078  53.0515 257.5978 0001162  96.8151 263.2970 15.06398514167812","PERIOD":"95.592","ARG_OF_PERICENTER":"96.8151","OBJECT_NAME":"STARLINK-1177","ELEMENT_SET_NO":"999","MEAN_MOTION_DOT":"0.00002965","DECAY_DATE":null,"MEAN_ELEMENT_THEORY":"SGP4","PERIAPSIS":"546.413","CLASSIFICATION_TYPE":"U","TIME_SYSTEM":"UTC","COUNTRY_CODE":"US","RCS_SIZE":"LARGE","MEAN_MOTION":"15.06398514","MEAN_MOTION_DDOT":"0.0000000000000","OBJECT_TYPE":"PAYLOAD","LAUNCH_DATE":"2020-01-29","FILE":"3789366","SITE":"AFETR","RA_OF_ASC_NODE":"257.5978","ECCENTRICITY":"0.00011620","BSTAR":"0.00021785000000"}];
